[{"OBJECT_NAME":"STARLINK-2500","OBJECT_ID":"2021-040BK","EPOCH":"2026-03-09T15:01:08.299200","MEAN_MOTION":15.30194354,"ECCENTRICITY":0.0001337,"INCLINATION":53.1601,"RA_OF_ASC_NODE":194.0306,"ARG_OF_PERICENTER":88.4337,"MEAN_ANOMALY":271.6817,"EPHEMERIS_TYPE":0,"CLASSIFICATION_TYPE":"U","NORAD_CAT_ID":48485,"ELEMENT_SET_NO":999,"REV_AT_EPOCH":26645,"BSTAR":3.5824e-5,"MEAN_MOTION_DOT":7.02e-6,"MEAN_MOTION_DDOT":0},{"OBJECT_NAME":"UHETSAT","OBJECT_ID":"2023-185E","EPOCH":"2026-03-09T22:39:26.455680","MEAN_MOTION":15.29797662,"ECCENTRICITY":0.00118435,"INCLINATION":97.3584,"RA_OF_ASC_NODE":137.3576,"ARG_OF_PERICENTER":307.7346,"MEAN_ANOMALY":52.2821,"EPHEMERIS_TYPE":0,"CLASSIFICATION_TYPE":"U","NORAD_CAT_ID":58466,"ELEMENT_SET_NO":999,"REV_AT_EPOCH":12611,"BSTAR":0.00030513019,"MEAN_MOTION_DOT":8.749e-5,"MEAN_MOTION_DDOT":0}]
